{
  "type": "FeatureCollection",
  "features": [
    {
      "type": "Feature",
      "properties": {
        "norad_id": 28890,
        "name": "BEIJING 1",
        "group": "dmc",
        "lat": -69.53568028683979,
        "lon": 142.2568168939527,
        "alt_km": 700.0317484704274,
        "timestamp": "2025-12-17T19:34:07.711241+00:00",
        "meta_object_name": "BEIJING 1",
        "meta_object_id": "2005-043A",
        "meta_epoch": "2025-12-17T08:24:27.033696",
        "meta_mean_motion": 14.63370965,
        "meta_eccentricity": 0.0015504,
        "meta_inclination": 98.2647,
        "meta_ra_of_asc_node": 118.8675,
        "meta_arg_of_pericenter": 127.5155,
        "meta_mean_anomaly": 232.7458,
        "meta_ephemeris_type": 0,
        "meta_classification_type": "U",
        "meta_norad_cat_id": 28890,
        "meta_element_set_no": 999,
        "meta_rev_at_epoch": 7405,
        "meta_bstar": 7.6047546e-05,
        "meta_mean_motion_dot": 3.45e-06,
        "meta_mean_motion_ddot": 0,
        "tle_line1": "1 28890U 05043A   25351.35031289  .00000345  00000+0  76048-4 0  9996",
        "tle_line2": "2 28890  98.2647 118.8675 0015504 127.5155 232.7458 14.63370965 74053"
      },
      "geometry": {
        "type": "Point",
        "coordinates": [
          142.2568168939527,
          -69.53568028683979
        ]
      }
    },
    {
      "type": "Feature",
      "properties": {
        "norad_id": 33320,
        "name": "HUANJING 1A (HJ-1A)",
        "group": "dmc",
        "lat": -38.41983278663637,
        "lon": -13.97486301502138,
        "alt_km": 617.4791584332679,
        "timestamp": "2025-12-17T19:34:07.711265+00:00",
        "meta_object_name": "HUANJING 1A (HJ-1A)",
        "meta_object_id": "2008-041A",
        "meta_epoch": "2025-12-17T06:47:30.897600",
        "meta_mean_motion": 14.83411479,
        "meta_eccentricity": 0.00198924,
        "meta_inclination": 97.6538,
        "meta_ra_of_asc_node": 339.3922,
        "meta_arg_of_pericenter": 20.2102,
        "meta_mean_anomaly": 339.9896,
        "meta_ephemeris_type": 0,
        "meta_classification_type": "U",
        "meta_norad_cat_id": 33320,
        "meta_element_set_no": 999,
        "meta_rev_at_epoch": 93143,
        "meta_bstar": 0.00020761765,
        "meta_mean_motion_dot": 1.658e-05,
        "meta_mean_motion_ddot": 0,
        "tle_line1": "1 33320U 08041A   25351.28299650  .00001658  00000+0  20762-3 0  9990",
        "tle_line2": "2 33320  97.6538 339.3922 0019892  20.2102 339.9896 14.83411479931437"
      },
      "geometry": {
        "type": "Point",
        "coordinates": [
          -13.97486301502138,
          -38.41983278663637
        ]
      }
    },
    {
      "type": "Feature",
      "properties": {
        "norad_id": 33321,
        "name": "HUANJING 1B (HJ-1B)",
        "group": "dmc",
        "lat": 7.3543898639256495,
        "lon": 164.57869173474194,
        "alt_km": 632.7254722180323,
        "timestamp": "2025-12-17T19:34:07.711279+00:00",
        "meta_object_name": "HUANJING 1B (HJ-1B)",
        "meta_object_id": "2008-041B",
        "meta_epoch": "2025-12-17T04:13:16.976352",
        "meta_mean_motion": 14.828325,
        "meta_eccentricity": 0.00381446,
        "meta_inclination": 97.6398,
        "meta_ra_of_asc_node": 342.9749,
        "meta_arg_of_pericenter": 61.65,
        "meta_mean_anomaly": 298.8553,
        "meta_ephemeris_type": 0,
        "meta_classification_type": "U",
        "meta_norad_cat_id": 33321,
        "meta_element_set_no": 999,
        "meta_rev_at_epoch": 93143,
        "meta_bstar": 8.1189085e-05,
        "meta_mean_motion_dot": 6.14e-06,
        "meta_mean_motion_ddot": 0,
        "tle_line1": "1 33321U 08041B   25351.17589093  .00000614  00000+0  81189-4 0  9994",
        "tle_line2": "2 33321  97.6398 342.9749 0038144  61.6500 298.8553 14.82832500931435"
      },
      "geometry": {
        "type": "Point",
        "coordinates": [
          164.57869173474194,
          7.3543898639256495
        ]
      }
    },
    {
      "type": "Feature",
      "properties": {
        "norad_id": 33446,
        "name": "YAOGAN-4",
        "group": "dmc",
        "lat": 78.3103760629691,
        "lon": -120.41372568637422,
        "alt_km": 620.1632260402939,
        "timestamp": "2025-12-17T19:34:07.711292+00:00",
        "meta_object_name": "YAOGAN-4",
        "meta_object_id": "2008-061A",
        "meta_epoch": "2025-12-17T07:51:55.678464",
        "meta_mean_motion": 14.82696189,
        "meta_eccentricity": 0.0013301,
        "meta_inclination": 97.9188,
        "meta_ra_of_asc_node": 281.382,
        "meta_arg_of_pericenter": 307.3083,
        "meta_mean_anomaly": 52.6917,
        "meta_ephemeris_type": 0,
        "meta_classification_type": "U",
        "meta_norad_cat_id": 33446,
        "meta_element_set_no": 999,
        "meta_rev_at_epoch": 91871,
        "meta_bstar": 0.00015900688,
        "meta_mean_motion_dot": 1.231e-05,
        "meta_mean_motion_ddot": 0,
        "tle_line1": "1 33446U 08061A   25351.32772776  .00001231  00000+0  15901-3 0  9997",
        "tle_line2": "2 33446  97.9188 281.3820 0013301 307.3083  52.6917 14.82696189918710"
      },
      "geometry": {
        "type": "Point",
        "coordinates": [
          -120.41372568637422,
          78.3103760629691
        ]
      }
    },
    {
      "type": "Feature",
      "properties": {
        "norad_id": 35681,
        "name": "DEIMOS-1",
        "group": "dmc",
        "lat": 68.4977450655907,
        "lon": 132.05607713288032,
        "alt_km": 636.7623092366402,
        "timestamp": "2025-12-17T19:34:07.711304+00:00",
        "meta_object_name": "DEIMOS-1",
        "meta_object_id": "2009-041A",
        "meta_epoch": "2025-12-17T07:51:22.449024",
        "meta_mean_motion": 14.74959408,
        "meta_eccentricity": 0.00026568,
        "meta_inclination": 97.7143,
        "meta_ra_of_asc_node": 151.7163,
        "meta_arg_of_pericenter": 71.7768,
        "meta_mean_anomaly": 288.3731,
        "meta_ephemeris_type": 0,
        "meta_classification_type": "U",
        "meta_norad_cat_id": 35681,
        "meta_element_set_no": 999,
        "meta_rev_at_epoch": 88007,
        "meta_bstar": 6.8972831e-05,
        "meta_mean_motion_dot": 4.16e-06,
        "meta_mean_motion_ddot": 0,
        "tle_line1": "1 35681U 09041A   25351.32734316  .00000416  00000+0  68973-4 0  9999",
        "tle_line2": "2 35681  97.7143 151.7163 0002656  71.7768 288.3731 14.74959408880071"
      },
      "geometry": {
        "type": "Point",
        "coordinates": [
          132.05607713288032,
          68.4977450655907
        ]
      }
    },
    {
      "type": "Feature",
      "properties": {
        "norad_id": 35683,
        "name": "UK-DMC 2",
        "group": "dmc",
        "lat": 79.29023870465268,
        "lon": -6.541022377707082,
        "alt_km": 634.7539005234248,
        "timestamp": "2025-12-17T19:34:07.711316+00:00",
        "meta_object_name": "UK-DMC 2",
        "meta_object_id": "2009-041C",
        "meta_epoch": "2025-12-17T07:44:16.052928",
        "meta_mean_motion": 14.75631912,
        "meta_eccentricity": 0.00014733,
        "meta_inclination": 97.8554,
        "meta_ra_of_asc_node": 126.0951,
        "meta_arg_of_pericenter": 94.8634,
        "meta_mean_anomaly": 265.2744,
        "meta_ephemeris_type": 0,
        "meta_classification_type": "U",
        "meta_norad_cat_id": 35683,
        "meta_element_set_no": 999,
        "meta_rev_at_epoch": 87974,
        "meta_bstar": 0.00011458706,
        "meta_mean_motion_dot": 7.33e-06,
        "meta_mean_motion_ddot": 0,
        "tle_line1": "1 35683U 09041C   25351.32240802  .00000733  00000+0  11459-3 0  9991",
        "tle_line2": "2 35683  97.8554 126.0951 0001473  94.8634 265.2744 14.75631912879742"
      },
      "geometry": {
        "type": "Point",
        "coordinates": [
          -6.541022377707082,
          79.29023870465268
        ]
      }
    },
    {
      "type": "Feature",
      "properties": {
        "norad_id": 40715,
        "name": "DMC3-FM1",
        "group": "dmc",
        "lat": -34.42522815195128,
        "lon": -135.8783074689534,
        "alt_km": 615.6262772759683,
        "timestamp": "2025-12-17T19:34:07.711327+00:00",
        "meta_object_name": "DMC3-FM1",
        "meta_object_id": "2015-032A",
        "meta_epoch": "2025-12-17T06:47:29.873760",
        "meta_mean_motion": 14.8544928,
        "meta_eccentricity": 0.000435,
        "meta_inclination": 97.6694,
        "meta_ra_of_asc_node": 218.3098,
        "meta_arg_of_pericenter": 304.503,
        "meta_mean_anomaly": 55.5774,
        "meta_ephemeris_type": 0,
        "meta_classification_type": "U",
        "meta_norad_cat_id": 40715,
        "meta_element_set_no": 999,
        "meta_rev_at_epoch": 56290,
        "meta_bstar": 8.2547964e-05,
        "meta_mean_motion_dot": 6.6e-06,
        "meta_mean_motion_ddot": 0,
        "tle_line1": "1 40715U 15032A   25351.28298465  .00000660  00000+0  82548-4 0  9990",
        "tle_line2": "2 40715  97.6694 218.3098 0004350 304.5030  55.5774 14.85449280562908"
      },
      "geometry": {
        "type": "Point",
        "coordinates": [
          -135.8783074689534,
          -34.42522815195128
        ]
      }
    },
    {
      "type": "Feature",
      "properties": {
        "norad_id": 40716,
        "name": "DMC3-FM2",
        "group": "dmc",
        "lat": -24.913617722629283,
        "lon": 36.678956040267536,
        "alt_km": 618.5914754352152,
        "timestamp": "2025-12-17T19:34:07.711337+00:00",
        "meta_object_name": "DMC3-FM2",
        "meta_object_id": "2015-032B",
        "meta_epoch": "2025-12-17T07:19:53.164416",
        "meta_mean_motion": 14.85447508,
        "meta_eccentricity": 0.00050029,
        "meta_inclination": 97.6752,
        "meta_ra_of_asc_node": 219.7786,
        "meta_arg_of_pericenter": 309.6369,
        "meta_mean_anomaly": 50.4405,
        "meta_ephemeris_type": 0,
        "meta_classification_type": "U",
        "meta_norad_cat_id": 40716,
        "meta_element_set_no": 999,
        "meta_rev_at_epoch": 56290,
        "meta_bstar": 4.915108e-06,
        "meta_mean_motion_dot": -9e-08,
        "meta_mean_motion_ddot": 0,
        "tle_line1": "1 40716U 15032B   25351.30547644 -.00000009  00000+0  49151-5 0  9992",
        "tle_line2": "2 40716  97.6752 219.7786 0005002 309.6369  50.4405 14.85447508562905"
      },
      "geometry": {
        "type": "Point",
        "coordinates": [
          36.678956040267536,
          -24.913617722629283
        ]
      }
    },
    {
      "type": "Feature",
      "properties": {
        "norad_id": 40717,
        "name": "DMC3-FM3",
        "group": "dmc",
        "lat": 82.28631687672656,
        "lon": 136.82340823232627,
        "alt_km": 607.1029292295416,
        "timestamp": "2025-12-17T19:34:07.711347+00:00",
        "meta_object_name": "DMC3-FM3",
        "meta_object_id": "2015-032C",
        "meta_epoch": "2025-12-17T06:14:04.732800",
        "meta_mean_motion": 14.8543508,
        "meta_eccentricity": 0.0004374,
        "meta_inclination": 97.6805,
        "meta_ra_of_asc_node": 221.3703,
        "meta_arg_of_pericenter": 310.9235,
        "meta_mean_anomaly": 49.1601,
        "meta_ephemeris_type": 0,
        "meta_classification_type": "U",
        "meta_norad_cat_id": 40717,
        "meta_element_set_no": 999,
        "meta_rev_at_epoch": 56290,
        "meta_bstar": 3.2513216e-05,
        "meta_mean_motion_dot": 2.29e-06,
        "meta_mean_motion_ddot": 0,
        "tle_line1": "1 40717U 15032C   25351.25977700  .00000229  00000+0  32513-4 0  9993",
        "tle_line2": "2 40717  97.6805 221.3703 0004374 310.9235  49.1601 14.85435080562906"
      },
      "geometry": {
        "type": "Point",
        "coordinates": [
          136.82340823232627,
          82.28631687672656
        ]
      }
    }
  ]
}